start=new Date('2023-04-18T00:00:00.000Z').valueOf();
sats=[{"BSTAR":"0.00019125000000","OBJECT_ID":"2022-010E","MEAN_ELEMENT_THEORY":"SGP4","COUNTRY_CODE":"US","TIME_SYSTEM":"UTC","PERIAPSIS":"538.934","ECCENTRICITY":"0.00011680","MEAN_ANOMALY":"286.0691","OBJECT_TYPE":"PAYLOAD","SITE":"AFETR","NORAD_CAT_ID":"51460","REF_FRAME":"TEME","OBJECT_NAME":"STARLINK-3167","GP_ID":"230264471","FILE":"3889391","DECAY_DATE":null,"RA_OF_ASC_NODE":"343.2728","TLE_LINE1":"1 51460U 22010E   23107.89114921  .00002757  00000-0  19125-3 0  9991","MEAN_MOTION_DOT":"0.00002757","TLE_LINE2":"2 51460  53.2172 343.2728 0001168  74.0429 286.0691 15.08841199 67280","APOAPSIS":"540.550","MEAN_MOTION":"15.08841199","CENTER_NAME":"EARTH","CLASSIFICATION_TYPE":"U","ELEMENT_SET_NO":"999","SEMIMAJOR_AXIS":"6917.877","EPHEMERIS_TYPE":"0","MEAN_MOTION_DDOT":"0.0000000000000","EPOCH":"2023-04-17T21:23:15.291744","INCLINATION":"53.2172","LAUNCH_DATE":"2022-02-03","ARG_OF_PERICENTER":"74.0429","REV_AT_EPOCH":"6728","PERIOD":"95.437","RCS_SIZE":"LARGE"},{"OBJECT_NAME":"STARLINK-3181","FILE":"3889391","GP_ID":"230264721","SITE":"AFETR","OBJECT_TYPE":"PAYLOAD","REF_FRAME":"TEME","NORAD_CAT_ID":"51461","DECAY_DATE":null,"RA_OF_ASC_NODE":"343.1863","COUNTRY_CODE":"US","TIME_SYSTEM":"UTC","MEAN_ELEMENT_THEORY":"SGP4","OBJECT_ID":"2022-010F","BSTAR":"-0.00007312400000","MEAN_ANOMALY":"270.7043","PERIAPSIS":"538.863","ECCENTRICITY":"0.00013050","EPHEMERIS_TYPE":"0","SEMIMAJOR_AXIS":"6917.901","CLASSIFICATION_TYPE":"U","ELEMENT_SET_NO":"999","RCS_SIZE":"LARGE","PERIOD":"95.438","INCLINATION":"53.2178","LAUNCH_DATE":"2022-02-03","MEAN_MOTION_DDOT":"0.0000000000000","EPOCH":"2023-04-17T21:49:45.315264","REV_AT_EPOCH":"6728","ARG_OF_PERICENTER":"89.4099","MEAN_MOTION_DOT":"-0.00001451","TLE_LINE1":"1 51461U 22010F   23107.90955226 -.00001451  00000-0 -73124-4 0  9997","CENTER_NAME":"EARTH","TLE_LINE2":"2 51461  53.2178 343.1863 0001305  89.4099 270.7043 15.08833178 67281","APOAPSIS":"540.669","MEAN_MOTION":"15.08833178"},{"ELEMENT_SET_NO":"999","CLASSIFICATION_TYPE":"U","EPHEMERIS_TYPE":"0","SEMIMAJOR_AXIS":"6917.881","ARG_OF_PERICENTER":"86.1789","REV_AT_EPOCH":"6728","INCLINATION":"53.2167","LAUNCH_DATE":"2022-02-03","MEAN_MOTION_DDOT":"0.0000000000000","EPOCH":"2023-04-17T21:45:49.695552","RCS_SIZE":"LARGE","PERIOD":"95.438","TLE_LINE1":"1 51462U 22010G   23107.90682518  .00002032  00000-0  14569-3 0  9990","MEAN_MOTION_DOT":"0.00002032","MEAN_MOTION":"15.08839713","APOAPSIS":"540.491","TLE_LINE2":"2 51462  53.2167 343.2129 0001076  86.1789 273.9326 15.08839713 67281","CENTER_NAME":"EARTH","REF_FRAME":"TEME","NORAD_CAT_ID":"51462","OBJECT_TYPE":"PAYLOAD","SITE":"AFETR","FILE":"3889391","GP_ID":"230265973","OBJECT_NAME":"STARLINK-3166","DECAY_DATE":null,"RA_OF_ASC_NODE":"343.2129","OBJECT_ID":"2022-010G","BSTAR":"0.00014569000000","COUNTRY_CODE":"US","TIME_SYSTEM":"UTC","MEAN_ELEMENT_THEORY":"SGP4","ECCENTRICITY":"0.00010760","PERIAPSIS":"539.002","MEAN_ANOMALY":"273.9326"},{"FILE":"3889391","GP_ID":"230265722","OBJECT_NAME":"STARLINK-3419","NORAD_CAT_ID":"51463","REF_FRAME":"TEME","OBJECT_TYPE":"PAYLOAD","SITE":"AFETR","RA_OF_ASC_NODE":"343.3244","DECAY_DATE":null,"MEAN_ELEMENT_THEORY":"SGP4","COUNTRY_CODE":"US","TIME_SYSTEM":"UTC","BSTAR":"0.00016982000000","OBJECT_ID":"2022-010H","MEAN_ANOMALY":"265.7503","ECCENTRICITY":"0.00011210","PERIAPSIS":"538.969","SEMIMAJOR_AXIS":"6917.879","EPHEMERIS_TYPE":"0","ELEMENT_SET_NO":"999","CLASSIFICATION_TYPE":"U","RCS_SIZE":"LARGE","PERIOD":"95.438","REV_AT_EPOCH":"6697","ARG_OF_PERICENTER":"94.3617","EPOCH":"2023-04-17T21:07:21.215424","MEAN_MOTION_DDOT":"0.0000000000000","INCLINATION":"53.2183","LAUNCH_DATE":"2022-02-03","MEAN_MOTION_DOT":"0.00002416","TLE_LINE1":"1 51463U 22010H   23107.88010666  .00002416  00000-0  16982-3 0  9994","CENTER_NAME":"EARTH","MEAN_MOTION":"15.08840319","APOAPSIS":"540.520","TLE_LINE2":"2 51463  53.2183 343.3244 0001121  94.3617 265.7503 15.08840319 66976"},{"PERIOD":"95.438","RCS_SIZE":"LARGE","INCLINATION":"53.2177","LAUNCH_DATE":"2022-02-03","MEAN_MOTION_DDOT":"0.0000000000000","EPOCH":"2023-04-17T21:33:50.945184","REV_AT_EPOCH":"6778","ARG_OF_PERICENTER":"99.3684","EPHEMERIS_TYPE":"0","SEMIMAJOR_AXIS":"6917.880","CLASSIFICATION_TYPE":"U","ELEMENT_SET_NO":"999","CENTER_NAME":"EARTH","APOAPSIS":"540.422","TLE_LINE2":"2 51464  53.2177 343.2392 0000978  99.3684 260.7419 15.08839969 67781","MEAN_MOTION":"15.08839969","MEAN_MOTION_DOT":"0.00008880","TLE_LINE1":"1 51464U 22010J   23107.89850631  .00008880  00000-0  57531-3 0  9996","RA_OF_ASC_NODE":"343.2392","DECAY_DATE":null,"OBJECT_NAME":"STARLINK-3189","FILE":"3889391","GP_ID":"230264972","SITE":"AFETR","OBJECT_TYPE":"PAYLOAD","REF_FRAME":"TEME","NORAD_CAT_ID":"51464","MEAN_ANOMALY":"260.7419","ECCENTRICITY":"0.00009780","PERIAPSIS":"539.069","COUNTRY_CODE":"US","TIME_SYSTEM":"UTC","MEAN_ELEMENT_THEORY":"SGP4","OBJECT_ID":"2022-010J","BSTAR":"0.00057531000000"},{"ELEMENT_SET_NO":"999","CLASSIFICATION_TYPE":"U","SEMIMAJOR_AXIS":"6917.880","EPHEMERIS_TYPE":"0","ARG_OF_PERICENTER":"90.8303","REV_AT_EPOCH":"6778","EPOCH":"2023-04-17T21:28:32.900736","MEAN_MOTION_DDOT":"0.0000000000000","LAUNCH_DATE":"2022-02-03","INCLINATION":"53.2172","RCS_SIZE":"LARGE","PERIOD":"95.438","TLE_LINE1":"1 51465U 22010K   23107.89482524  .00000135  00000-0  26553-4 0  9995","MEAN_MOTION_DOT":"0.00000135","MEAN_MOTION":"15.08840194","APOAPSIS":"540.260","TLE_LINE2":"2 51465  53.2172 343.2547 0000745  90.8303 269.2775 15.08840194 67786","CENTER_NAME":"EARTH","NORAD_CAT_ID":"51465","REF_FRAME":"TEME","OBJECT_TYPE":"PAYLOAD","SITE":"AFETR","GP_ID":"230265222","FILE":"3889391","OBJECT_NAME":"STARLINK-3401","DECAY_DATE":null,"RA_OF_ASC_NODE":"343.2547","BSTAR":"0.00002655300000","OBJECT_ID":"2022-010K","MEAN_ELEMENT_THEORY":"SGP4","TIME_SYSTEM":"UTC","COUNTRY_CODE":"US","ECCENTRICITY":"0.00007450","PERIAPSIS":"539.229","MEAN_ANOMALY":"269.2775"},{"EPHEMERIS_TYPE":"0","SEMIMAJOR_AXIS":"6917.881","ELEMENT_SET_NO":"999","CLASSIFICATION_TYPE":"U","RCS_SIZE":"LARGE","PERIOD":"95.438","REV_AT_EPOCH":"6697","ARG_OF_PERICENTER":"115.9486","INCLINATION":"53.2169","LAUNCH_DATE":"2022-02-03","EPOCH":"2023-04-17T21:02:03.175296","MEAN_MOTION_DDOT":"0.0000000000000","MEAN_MOTION_DOT":"0.00001630","TLE_LINE1":"1 51467U 22010M   23107.87642564  .00001630  00000-0  12045-3 0  9998","CENTER_NAME":"EARTH","MEAN_MOTION":"15.08839864","APOAPSIS":"540.512","TLE_LINE2":"2 51467  53.2169 343.3366 0001108 115.9486 244.1620 15.08839864 66972","GP_ID":"230265473","FILE":"3889391","OBJECT_NAME":"STARLINK-3178","REF_FRAME":"TEME","NORAD_CAT_ID":"51467","OBJECT_TYPE":"PAYLOAD","SITE":"AFETR","RA_OF_ASC_NODE":"343.3366","DECAY_DATE":null,"TIME_SYSTEM":"UTC","COUNTRY_CODE":"US","MEAN_ELEMENT_THEORY":"SGP4","OBJECT_ID":"2022-010M","BSTAR":"0.00012045000000","MEAN_ANOMALY":"244.1620","PERIAPSIS":"538.979","ECCENTRICITY":"0.00011080"},{"BSTAR":"0.00106730000000","OBJECT_ID":"2022-010N","MEAN_ELEMENT_THEORY":"SGP4","TIME_SYSTEM":"UTC","COUNTRY_CODE":"US","PERIAPSIS":"538.896","ECCENTRICITY":"0.00011440","MEAN_ANOMALY":"236.6861","OBJECT_TYPE":"PAYLOAD","SITE":"AFETR","NORAD_CAT_ID":"51468","REF_FRAME":"TEME","OBJECT_NAME":"STARLINK-3174","FILE":"3889391","GP_ID":"230266223","DECAY_DATE":null,"RA_OF_ASC_NODE":"343.2956","TLE_LINE1":"1 51468U 22010N   23107.88843267  .00016748  00000-0  10673-2 0  9993","MEAN_MOTION_DOT":"0.00016748","TLE_LINE2":"2 51468  53.2174 343.2956 0001144 123.4241 236.6861 15.08859038 66974","APOAPSIS":"540.479","MEAN_MOTION":"15.08859038","CENTER_NAME":"EARTH","CLASSIFICATION_TYPE":"U","ELEMENT_SET_NO":"999","SEMIMAJOR_AXIS":"6917.822","EPHEMERIS_TYPE":"0","MEAN_MOTION_DDOT":"0.0000000000000","EPOCH":"2023-04-17T21:19:20.582688","INCLINATION":"53.2174","LAUNCH_DATE":"2022-02-03","REV_AT_EPOCH":"6697","ARG_OF_PERICENTER":"123.4241","PERIOD":"95.436","RCS_SIZE":"LARGE"},{"ELEMENT_SET_NO":"999","CLASSIFICATION_TYPE":"U","EPHEMERIS_TYPE":"0","SEMIMAJOR_AXIS":"6917.881","REV_AT_EPOCH":"6728","ARG_OF_PERICENTER":"122.4410","LAUNCH_DATE":"2022-02-03","INCLINATION":"53.2167","MEAN_MOTION_DDOT":"0.0000000000000","EPOCH":"2023-04-17T21:39:08.674272","RCS_SIZE":"LARGE","PERIOD":"95.438","TLE_LINE1":"1 51469U 22010P   23107.90218373 -.00000291  00000-0 -17635-6 0  9998","MEAN_MOTION_DOT":"-0.00000291","MEAN_MOTION":"15.08839839","APOAPSIS":"540.644","TLE_LINE2":"2 51469  53.2167 343.2212 0001298 122.4410 237.6708 15.08839839 67282","CENTER_NAME":"EARTH","REF_FRAME":"TEME","NORAD_CAT_ID":"51469","OBJECT_TYPE":"PAYLOAD","SITE":"AFETR","FILE":"3889391","GP_ID":"230264472","OBJECT_NAME":"STARLINK-3182","DECAY_DATE":null,"RA_OF_ASC_NODE":"343.2212","OBJECT_ID":"2022-010P","BSTAR":"-0.00000017635000","COUNTRY_CODE":"US","TIME_SYSTEM":"UTC","MEAN_ELEMENT_THEORY":"SGP4","ECCENTRICITY":"0.00012980","PERIAPSIS":"538.848","MEAN_ANOMALY":"237.6708"},{"RA_OF_ASC_NODE":"331.0971","DECAY_DATE":null,"REF_FRAME":"TEME","NORAD_CAT_ID":"51471","SITE":"AFETR","OBJECT_TYPE":"PAYLOAD","GP_ID":"230264722","FILE":"3889391","OBJECT_NAME":"STARLINK-3165","PERIAPSIS":"487.885","ECCENTRICITY":"0.00060150","MEAN_ANOMALY":"198.2243","OBJECT_ID":"2022-010R","BSTAR":"0.00344410000000","COUNTRY_CODE":"US","TIME_SYSTEM":"UTC","MEAN_ELEMENT_THEORY":"SGP4","REV_AT_EPOCH":"6745","ARG_OF_PERICENTER":"161.8972","LAUNCH_DATE":"2022-02-03","INCLINATION":"53.2256","EPOCH":"2023-04-17T21:17:22.740000","MEAN_MOTION_DDOT":"0.0000000000000","RCS_SIZE":"LARGE","PERIOD":"94.452","ELEMENT_SET_NO":"999","CLASSIFICATION_TYPE":"U","EPHEMERIS_TYPE":"0","SEMIMAJOR_AXIS":"6870.153","MEAN_MOTION":"15.24590334","APOAPSIS":"496.150","TLE_LINE2":"2 51471  53.2256 331.0971 0006015 161.8972 198.2243 15.24590334 67450","CENTER_NAME":"EARTH","TLE_LINE1":"1 51471U 22010R   23107.88706875  .00086713  00000-0  34441-2 0  9998","MEAN_MOTION_DOT":"0.00086713"}];
